TOMORROW-S1             
1 60479U 24149M   26068.72470524  .00008620  00000+0  28856-3 0  9996
2 60479  97.3791 149.6044 0001819 207.2040 152.9106 15.31198362 86867
STARLINK-35362          
1 65888U 25224G   26068.24335319  .00045184  00000+0  15276-2 0  9996
2 65888  53.1620  13.5923 0001265 231.4894 128.5994 15.30218770 24752
